NORAD_CAT_ID,OBJECT_NAME,OBJECT_TYPE,EPOCH,MEAN_MOTION,ECCENTRICITY,INCLINATION,RA_OF_ASC_NODE,ARG_OF_PERICENTER,MEAN_ANOMALY,BSTAR,MEAN_MOTION_DOT,MEAN_MOTION_DDOT,TLE_LINE0,TLE_LINE1,TLE_LINE2,SEMIMAJOR_AXIS,PERIOD,APOGEE,PERIGEE,DECAYED
51130.0,STARLINK-3395,PAYLOAD,2022-12-07 09:34:39,15.08839507,0.0002822,53.2159,233.575,40.8254,319.295,2.5876e-05,1.23e-06,0.0,0 STARLINK-3395,1 51130U 22005AC  22341.39906353  .00000123  00000-0  25876-4 0  9997,2 51130  53.2159 233.5750 0002822  40.8254 319.2950 15.08839507 50458,6917.882,95.438,541.6990000000002,537.795,0.0
51130.0,STARLINK-3395,PAYLOAD,2022-12-08 09:25:25,15.08842807,0.000282,53.2162,229.1136,42.1742,317.9466,2.9051e-05,1.74e-06,0.0,0 STARLINK-3395,1 51130U 22005AC  22342.39266010  .00000174  00000-0  29051-4 0  9992,2 51130  53.2162 229.1136 0002820  42.1742 317.9466 15.08842807 49481,6917.871999999999,95.437,541.688,537.786,0.0
51130.0,STARLINK-3395,PAYLOAD,2022-12-08 23:44:03,15.08728149,0.0002958,53.2165,226.4441,56.2306,303.8967,-0.0015994,-0.00025577,0.0,0 STARLINK-3395,1 51130U 22005AC  22342.98892479 -.00025577  00000-0 -15994-2 0  9996,2 51130  53.2165 226.4441 0002958  56.2306 303.8967 15.08728149 50694,6918.222,95.445,542.134,538.0409999999998,0.0
51130.0,STARLINK-3395,PAYLOAD,2022-12-09 07:40:53,15.08788633,0.0002749,53.2165,224.9569,43.8832,316.2378,-0.00055519,-9.102e-05,0.0,0 STARLINK-3395,1 51130U 22005AC  22343.32006367 -.00009102  00000-0 -55519-3 0  9992,2 51130  53.2165 224.9569 0002749  43.8832 316.2378 15.08788633 49621,6918.0369999999975,95.441,541.804,538.001,0.0
51130.0,STARLINK-3395,PAYLOAD,2022-12-09 20:23:55,15.08858739,0.0002626,53.2164,222.5762,339.8734,20.2154,-0.001093,-0.00017651,0.0,0 STARLINK-3395,1 51130U 22005AC  22343.84994421 -.00017651  00000-0 -10930-2 0  9991,2 51130  53.2164 222.5762 0002626 339.8734  20.2154 15.08858739 50825,6917.823,95.436,541.505,537.871,0.0
51130.0,STARLINK-3395,PAYLOAD,2022-12-10 01:10:07,15.08809302,0.0002547,53.2162,221.6826,41.8493,318.2693,-0.00015154,-2.697e-05,0.0,0 STARLINK-3395,1 51130U 22005AC  22344.04869215 -.00002697  00000-0 -15154-3 0  9994,2 51130  53.2162 221.6826 0002547  41.8493 318.2693 15.08809302 50851,6917.974,95.439,541.601,538.077,0.0
51130.0,STARLINK-3395,PAYLOAD,2022-12-10 20:14:43,15.08828274,0.0002716,53.2164,218.1108,36.7705,323.3473,-3.1655e-05,-7.92e-06,0.0,0 STARLINK-3395,1 51130U 22005AC  22344.84356454 -.00000792  00000-0 -31655-4 0  9997,2 51130  53.2164 218.1108 0002716  36.7705 323.3473 15.08828274 49854,6917.916,95.438,541.66,537.9019999999998,0.0
51130.0,STARLINK-3395,PAYLOAD,2022-12-11 01:00:52,15.08842435,0.0002784,53.2162,217.2207,37.6151,322.5035,4.0073e-05,3.49e-06,0.0,0 STARLINK-3395,1 51130U 22005AC  22345.04227597  .00000349  00000-0  40073-4 0  9995,2 51130  53.2162 217.2207 0002784  37.6151 322.5035 15.08842435 51002,6917.873000000001,95.437,541.664,537.812,0.0
51130.0,STARLINK-3395,PAYLOAD,2022-12-11 20:05:30,15.08830783,0.0002869,53.2167,213.6507,35.8123,324.3061,0.00037625,5.703e-05,0.0,0 STARLINK-3395,1 51130U 22005AC  22345.83715925  .00005703  00000-0  37625-3 0  9996,2 51130  53.2167 213.6507 0002869  35.8123 324.3061 15.08830783 51128,6917.909000000002,95.438,541.758,537.789,0.0
51130.0,STARLINK-3395,PAYLOAD,2022-12-12 00:51:40,15.08836995,0.0002911,53.2151,212.7593,33.4624,326.6552,0.00044898,6.864e-05,0.0,0 STARLINK-3395,1 51130U 22005AC  22346.03588573  .00006864  00000-0  44898-3 0  9995,2 51130  53.2151 212.7593 0002911  33.4624 326.6552 15.08836995 50034,6917.89,95.438,541.768,537.741,0.0
51130.0,STARLINK-3395,PAYLOAD,2022-12-13 00:42:27,15.08846237,0.000264,53.2144,208.2986,35.7596,324.3572,9.2384e-05,1.182e-05,0.0,0 STARLINK-3395,1 51130U 22005AC  22347.02947938  .00001182  00000-0  92384-4 0  9991,2 51130  53.2144 208.2986 0002640  35.7596 324.3572 15.08846237 51302,6917.861,95.437,541.553,537.9,0.0
51130.0,STARLINK-3395,PAYLOAD,2022-12-13 15:00:55,15.08838028,0.0002527,53.213,205.6208,36.3773,323.7390000000001,-1.0083e-05,-4.49e-06,0.0,0 STARLINK-3395,1 51130U 22005AC  22347.62564274 -.00000449  00000-0 -10083-4 0  9998,2 51130  53.2130 205.6208 0002527  36.3773 323.7390 15.08838028 51392,6917.886,95.438,541.5,538.003,0.0
51130.0,STARLINK-3395,PAYLOAD,2022-12-14 00:33:14,15.08841384,0.0002674,53.2141,203.8381,34.9323,325.1844,1.6420999999999994e-05,-2.7e-07,0.0,0 STARLINK-3395,1 51130U 22005AC  22348.02308208 -.00000027  00000-0  16421-4 0  9999,2 51130  53.2141 203.8381 0002674  34.9323 325.1844 15.08841384 50336,6917.876,95.437,541.591,537.891,0.0
51130.0,STARLINK-3395,PAYLOAD,2022-12-14 21:13:14,15.08857512,0.0002461,53.215,199.9715,36.09,324.0258,-1.8024e-05,-5.75e-06,0.0,0 STARLINK-3395,1 51130U 22005AC  22348.88419119 -.00000575  00000-0 -18024-4 0  9997,2 51130  53.2150 199.9715 0002461  36.0900 324.0258 15.08857512 51585,6917.8269999999975,95.436,541.394,537.989,0.0
51130.0,STARLINK-3395,PAYLOAD,2022-12-15 06:45:33,15.0883562,0.0002673,53.2141,198.1884,38.5635,321.5548,6.5074e-05,7.47e-06,0.0,0 STARLINK-3395,1 51130U 22005AC  22349.28164320  .00000747  00000-0  65074-4 0  9999,2 51130  53.2141 198.1884 0002673  38.5635 321.5548 15.08835620 51647,6917.894,95.438,541.6080000000002,537.91,0.0
51130.0,STARLINK-3395,PAYLOAD,2022-12-15 13:07:06,15.08836324,0.0002586,53.2144,196.9985,35.8605,324.2561,9.7709e-05,1.267e-05,0.0,0 STARLINK-3395,1 51130U 22005AC  22349.54660283  .00001267  00000-0  97709-4 0  9995,2 51130  53.2144 196.9985 0002586  35.8605 324.2561 15.08836324 50565,6917.892,95.438,541.5459999999998,537.9680000000002,0.0
51130.0,STARLINK-3395,PAYLOAD,2022-12-15 21:04:01,15.08843909,0.0002662,53.2139,195.5117,37.0878,323.0298,9.6682e-05,1.251e-05,0.0,0 STARLINK-3395,1 51130U 22005AC  22349.87779743  .00001251  00000-0  96682-4 0  9995,2 51130  53.2139 195.5117 0002662  37.0878 323.0298 15.08843909 50619,6917.868,95.437,541.575,537.8919999999998,0.0
51130.0,STARLINK-3395,PAYLOAD,2022-12-16 12:57:52,15.08848598,0.0002881,53.2143,192.5383,39.5253,320.5949,2.0155e-06,-2.57e-06,0.0,0 STARLINK-3395,1 51130U 22005AC  22350.54019218 -.00000257  00000-0  20155-5 0  9994,2 51130  53.2143 192.5383 0002881  39.5253 320.5949 15.08848598 50718,6917.854,95.437,541.712,537.726,0.0
51130.0,STARLINK-3395,PAYLOAD,2022-12-16 19:19:25,15.08843026,0.0002648,53.2147,191.3487,39.3677,320.7507,-0.0001605,-2.842e-05,0.0,0 STARLINK-3395,1 51130U 22005AC  22350.80515565 -.00002842  00000-0 -16050-3 0  9999,2 51130  53.2147 191.3487 0002648  39.3677 320.7507 15.08843026 50750,6917.871,95.437,541.568,537.904,0.0
51130.0,STARLINK-3395,PAYLOAD,2022-12-17 00:05:35,15.08838961,0.0002715,53.2145,190.4565,39.7471,320.372,-7.0351e-05,-1.408e-05,0.0,0 STARLINK-3395,1 51130U 22005AC  22351.00387777 -.00001408  00000-0 -70351-4 0  9996,2 51130  53.2145 190.4565 0002715  39.7471 320.3720 15.08838961 51909,6917.884,95.438,541.627,537.87,0.0
51130.0,STARLINK-3395,PAYLOAD,2022-12-17 12:48:40,15.08830651,0.0002777,53.2148,188.0775,39.4637,320.6557,-4.8267e-05,-1.056e-05,0.0,0 STARLINK-3395,1 51130U 22005AC  22351.53380413 -.00001056  00000-0 -48267-4 0  9994,2 51130  53.2148 188.0775 0002777  39.4637 320.6557 15.08830651 50860,6917.909000000002,95.438,541.695,537.8530000000002,0.0
51130.0,STARLINK-3395,PAYLOAD,2022-12-17 17:34:50,15.08827606,0.0002728,53.2152,187.1852,39.2987,320.8203,-5.8862e-05,-1.225e-05,0.0,0 STARLINK-3395,1 51130U 22005AC  22351.73253328 -.00001225  00000-0 -58862-4 0  9990,2 51130  53.2152 187.1852 0002728  39.2987 320.8203 15.08827606 52018,6917.918000000002,95.438,541.67,537.896,0.0
51130.0,STARLINK-3395,PAYLOAD,2022-12-17 19:10:14,15.08826711,0.0002674,53.2154,186.8879,40.0293,320.0896,-7.344300000000001e-05,-1.457e-05,0.0,0 STARLINK-3395,1 51130U 22005AC  22351.79877478 -.00001457  00000-0 -73443-4 0  9993,2 51130  53.2154 186.8879 0002674  40.0293 320.0896 15.08826711 50907,6917.920999999999,95.438,541.636,537.936,0.0
51130.0,STARLINK-3395,PAYLOAD,2022-12-18 12:39:28,15.08829423,0.0002693,53.2156,183.617,39.6419,320.4769,-7.4564e-05,-1.475e-05,0.0,0 STARLINK-3395,1 51130U 22005AC  22352.52741811 -.00001475  00000-0 -74564-4 0  9991,2 51130  53.2156 183.6170 0002693  39.6419 320.4769 15.08829423 51012,6917.913000000001,95.438,541.641,537.915,0.0
51130.0,STARLINK-3395,PAYLOAD,2022-12-18 19:01:01,15.08825836,0.0002656,53.2153,182.427,39.8359,320.2827,-6.1104e-06,-3.86e-06,0.0,0 STARLINK-3395,1 51130U 22005AC  22352.79238051 -.00000386  00000-0 -61104-5 0  9994,2 51130  53.2153 182.4270 0002656  39.8359 320.2827 15.08825836 52176,6917.924,95.438,541.626,537.951,0.0
51130.0,STARLINK-3395,PAYLOAD,2022-12-19 06:08:43,15.08828426,0.0002686,53.2154,180.3454,40.4042,319.7149,1.1417e-05,-1.07e-06,0.0,0 STARLINK-3395,1 51130U 22005AC  22353.25606276 -.00000107  00000-0  11417-4 0  9995,2 51130  53.2154 180.3454 0002686  40.4042 319.7149 15.08828426 51120,6917.916,95.438,541.639,537.923,0.0
51130.0,STARLINK-3395,PAYLOAD,2022-12-19 18:51:49,15.08827148,0.0002727,53.2153,177.9667,40.7551,319.3645,0.00011856,1.598e-05,0.0,0 STARLINK-3395,1 51130U 22005AC  22353.78598489  .00001598  00000-0  11856-3 0  9999,2 51130  53.2153 177.9667 0002727  40.7551 319.3645 15.08827148 51207,6917.92,95.438,541.6709999999998,537.898,0.0
51130.0,STARLINK-3395,PAYLOAD,2022-12-20 05:59:31,15.08830485,0.0002979,53.2161,175.8859,42.6327,317.4896,0.00012949,1.772e-05,0.0,0 STARLINK-3395,1 51130U 22005AC  22354.24966718  .00001772  00000-0  12949-3 0  9993,2 51130  53.2161 175.8859 0002979  42.6327 317.4896 15.08830485 52393,6917.909000000002,95.438,541.835,537.714,0.0
51130.0,STARLINK-3395,PAYLOAD,2022-12-20 12:21:03,15.08834991,0.0003019,53.2159,174.696,42.0847,318.0377,0.00012976,1.777e-05,0.0,0 STARLINK-3395,1 51130U 22005AC  22354.51462567  .00001777  00000-0  12976-3 0  9991,2 51130  53.2159 174.6960 0003019  42.0847 318.0377 15.08834991 51315,6917.896,95.438,541.849,537.672,0.0
